BEIDOU-2 G7             
1 41586U 16037A   22125.83804839 -.00000348  00000+0  00000+0 0  9990
2 41586   1.8848  69.2028 0009152   2.6009 204.0292  1.00266629 21718
ABS-2A (MONGOLSAT-1)    
1 41588U 16038A   22126.06993534 -.00000079  00000+0  00000+0 0  9991
2 41588   0.0200 278.1740 0002364  51.3790 354.2593  1.00270017 21629
EUTELSAT 117 WEST B     
1 41589U 16038B   22126.08452162 -.00000007  00000+0  00000+0 0  9992
2 41589   0.0114 125.2295 0000244 320.4437  51.6864  1.00272037 21638
BRISAT                  
1 41591U 16039A   22125.91281222 -.00000191  00000+0  00000+0 0  9998
2 41591   0.0184 272.6539 0002047 121.8457 308.3680  1.00271959 21577
ECHOSTAR 18             
1 41592U 16039B   22125.51175833 -.00000277  00000+0  00000+0 0  9990
2 41592   0.0177 271.6244 0001305 126.4556 308.1589  1.00274198 21540
MUOS-5                  
1 41622U 16041A   22125.57497830 -.00000151  00000+0  00000+0 0  9998
2 41622   5.7127 301.2547 0195359 233.8358 150.2994  1.00271925 22017
TIANTONG-1 1            
1 41725U 16048A   22126.04651330 -.00000315  00000+0  00000+0 0  9991
2 41725   2.2974 356.2686 0003665  54.5887 291.2066  1.00272706 21192
JCSAT-16                
1 41729U 16050A   22126.14355089 -.00000244  00000+0  00000+0 0  9992
2 41729   0.0803  94.1041 0000634  92.5904 185.7039  1.00093802 20993
USA 270                 
1 41744U 16052A   22122.38148241 -.00000117  00000+0  00000+0 0  9992
2 41744   0.3367  97.1481 0001646 176.3046 157.5413  1.00485423  3630
USA 271                 
1 41745U 16052B   22121.88736942 -.00000299  00000+0  00000+0 0  9999
2 41745   0.3006  97.0096 0003829   1.5228 181.9781  1.00196875  3626
INTELSAT 36 (IS-36)     
1 41747U 16053A   22126.18344574 -.00000019  00000+0  00000+0 0  9996
2 41747   0.0135 342.6840 0001593 358.6096  17.2631  1.00271553 20877
INTELSAT 33E (IS-33E)   
1 41748U 16053B   22126.18178860  .00000054  00000+0  00000+0 0  9998
2 41748   0.0168 340.1666 0001535  63.1674 306.1331  1.00271069 21149
INSAT-3DR               
1 41752U 16054A   22126.11288628 -.00000072  00000+0  00000+0 0  9992
2 41752   0.0829  95.8844 0010688 182.2567  60.4724  1.00271380 20728
GSAT-18                 
1 41793U 16060A   22126.11279906 -.00000072  00000+0  00000+0 0  9993
2 41793   0.0256 127.0014 0002625 281.4157 290.1549  1.00272254 20462
SKY MUSTER 2 (NBN1B)    
1 41794U 16060B   22125.98345462 -.00000239  00000+0  00000+0 0  9994
2 41794   0.0134 272.0745 0001436 124.9119 325.6842  1.00272729 20500
HIMAWARI-9              
1 41836U 16064A   22126.26961726 -.00000270  00000+0  00000+0 0  9999
2 41836   0.0374  98.5003 0000757 278.0088  85.4310  1.00272199 20234
SHIJIAN-17 (SJ-17)      
1 41838U 16065A   22125.95190696 -.00000357  00000+0  00000+0 0  9993
2 41838   1.9217  89.9474 0000909  33.3461 200.7472  1.00272913 20138
GOES 16                 
1 41866U 16071A   22125.58073470 -.00000243  00000+0  00000+0 0  9994
2 41866   0.0413 277.1209 0000616 158.4380 281.7443  1.00271389 20030
TIANLIAN 1-04           
1 41869U 16072A   22126.20507583  .00000036  00000+0  00000+0 0  9994
2 41869   0.0401 275.7710 0025026 197.0628   1.8009  1.00271857 20238
WGS F8 (USA 272)        
1 41879U 16075A   22126.24841154 -.00000197  00000+0  00000+0 0  9996
2 41879   0.0103 261.4229 0000327 120.5353  81.3543  1.00271837 19858
FENGYUN 4A              
1 41882U 16077A   22126.28336168 -.00000325  00000+0  00000+0 0  9993
2 41882   0.1349 288.2221 0004410 201.5012 301.0658  1.00271393 19916
ECHOSTAR 19             
1 41893U 16079A   22126.07341010 -.00000133  00000+0  00000+0 0  9993
2 41893   0.0079 278.8189 0001430 114.2381 120.1831  1.00271106 19660
JCSAT-110A (JCSAT-15)   
1 41903U 16082A   22126.26351198 -.00000346  00000+0  00000+0 0  9994
2 41903   0.0182 268.1518 0000713 105.1843  55.6959  1.00271147 19714
STAR ONE D1             
1 41904U 16082B   22125.57890312 -.00000206  00000+0  00000+0 0  9999
2 41904   0.0052 173.6885 0001589 224.3757 309.7628  1.00272921 19692
TJS-2                   
1 41911U 17001A   22125.85485838 -.00000001  00000+0  00000+0 0  9996
2 41911   0.2601  88.2847 0004511  78.9706  70.6614  1.00272989 19655
SBIRS GEO-4 (USA 273)   
1 41937U 17004A   22125.70749213  .00000133  00000+0  00000+0 0  9996
2 41937   2.4157 317.2746 0001725  86.5882 274.9887  1.00273323 19520
HISPASAT 36W-1          
1 41942U 17006A   22125.66036573 -.00000239  00000+0  00000+0 0  9995
2 41942   0.0034 318.0704 0000988  83.3772  23.7975  1.00271509 19140
TELKOM 3S               
1 41944U 17007A   22125.97804708 -.00000358  00000+0  00000+0 0  9997
2 41944   0.0147 281.5647 0002204 111.2509 301.0995  1.00274421 19149
INTELSAT 32E (IS-32E)   
1 41945U 17007B   22125.89771405 -.00000264  00000+0  00000+0 0  9992
2 41945   0.0071 290.4029 0000709  34.4650 178.8641  1.00271007 19178
ECHOSTAR 23             
1 42070U 17014A   22125.57445500 -.00000052  00000+0  00000+0 0  9994
2 42070   0.0180 267.1121 0001985 138.2907 278.0758  1.00137602 18845
WGS F9 (USA 275)        
1 42075U 17016A   22126.23917812 -.00000092  00000+0  00000+0 0  9999
2 42075   0.0155 294.7550 0000151 298.0128  65.4121  1.00269783 18857
SES-10                  
1 42432U 17017A   22126.28834179 -.00000268  00000+0  00000+0 0  9991
2 42432   0.0105 328.4462 0002608  78.4481 214.1344  1.00273413 18650
CHINASAT 16 (SJ-13)     
1 42662U 17018A   22125.96405924 -.00000347  00000+0  00000+0 0  9991
2 42662   0.0924  90.3072 0004282 156.9547  74.1442  1.00270134 18662
KOREASAT 7              
1 42691U 17023A   22125.70812792 -.00000357  00000+0  00000+0 0  9997
2 42691   0.0200  14.2085 0001486  39.2646 180.8844  1.00269109 18319
SGDC                    
1 42692U 17023B   22125.58733018 -.00000245  00000+0  00000+0 0  9993
2 42692   0.0494  87.8852 0002168 320.1217 312.0177  1.00272056 18376
GSAT-9                  
1 42695U 17024A   22125.98333178 -.00000281  00000+0  00000+0 0  9994
2 42695   0.0951 257.8611 0002059 132.9133 284.3688  1.00272695 18359
INMARSAT 5-F4           
1 42698U 17025A   22126.18109087  .00000080  00000+0  00000+0 0  9997
2 42698   0.0174 283.8445 0000182 311.1485 110.7106  1.00272805 18180
SES-15                  
1 42709U 17026A   22126.21635887  .00000065  00000+0  00000+0 0  9990
2 42709   0.0295  19.1460 0000300 331.0658 182.5856  1.00270711 19116
QZS-2 (MICHIBIKI-2)     
1 42738U 17028A   22126.26708792 -.00000216  00000+0  00000+0 0  9994
2 42738  41.8434 264.7628 0740657 270.7314 281.9925  1.00249460 18065
VIASAT-2                
1 42740U 17029A   22125.51010118 -.00000260  00000+0  00000+0 0  9992
2 42740   0.0179 275.0306 0000283 339.7254  82.3516  1.00272290 18114
EUTELSAT 172B           
1 42741U 17029B   22125.84530538 -.00000001  00000+0  00000+0 0  9995
2 42741   0.0394 147.9133 0000297 138.2422  53.8445  1.00271318 18645
GSAT-19                 
1 42747U 17031A   22125.53347564  .00000130  00000+0  00000+0 0  9997
2 42747   0.0583  97.5334 0006449 336.8917  28.8672  1.00266695 18066
ECHOSTAR 21             
1 42749U 17032A   22125.66961087  .00000068  00000+0  00000+0 0  9996
2 42749   4.0745 311.2638 0002010  84.3840  79.1822  1.00273248 18030
BULGARIASAT-1           
1 42801U 17038A   22125.30907740  .00000016  00000+0  00000+0 0  9991
2 42801   0.0583  99.7883 0002429 298.1061 298.4348  1.00269752 17740
HELLAS-SAT 3            
1 42814U 17040A   22126.24938264  .00000157  00000+0  00000+0 0  9993
2 42814   0.0638   9.4812 0005193  17.7728 325.6142  1.00269994 17788
GSAT-17                 
1 42815U 17040B   22124.99102455 -.00000253  00000+0  00000+0 0  9997
2 42815   0.0591  94.3584 0003108 217.3723   1.3815  1.00272862 17708
INTELSAT 35E (IS-35E)   
1 42818U 17041A   22126.16294947 -.00000233  00000+0  00000+0 0  9998
2 42818   0.0095 210.3252 0001555 191.6305 206.2180  1.00273611 17733
COSMOS 2520             
1 42907U 17046A   22125.46125902  .00000142  00000+0  00000+0 0  9996
2 42907   0.0382 121.3000 0000664 119.1379 193.9237  1.00272419 17313
TDRS 13                 
1 42915U 17047A   22125.37807743 -.00000099  00000+0  00000+0 0  9998
2 42915   4.5388 333.1139 0018771 106.3289 268.3182  1.00272859 17278
QZS-3 (MICHIBIKI-3)     
1 42917U 17048A   22125.50813233 -.00000343  00000+0  00000+0 0  9999
2 42917   0.0740 136.5739 0002100 276.5950 120.1605  1.00273304 17189
AMAZONAS 5              
1 42934U 17053A   22125.44006501 -.00000277  00000+0  00000+0 0  9995
2 42934   0.0330 315.5827 0003954  57.5278 307.6024  1.00273238 16999
ASIASAT 9               
1 42942U 17057A   22125.90402097 -.00000341  00000+0  00000+0 0  9991
2 42942   0.0079 299.0689 0025972 355.7630  16.3728  0.99880441 16867
INTELSAT 37E (IS-37E)   
1 42950U 17059A   22126.16626376 -.00000135  00000+0  00000+0 0  9990
2 42950   0.0145 272.7141 0002360 133.1585 219.9913  1.00272475 16978
BSAT-4A                 
1 42951U 17059B   22126.26351198 -.00000345  00000+0  00000+0 0  9992
2 42951   0.0796  47.7207 0004329   8.8862  12.2024  1.00270537 16881
QZS-4 (MICHIBIKI-4)     
1 42965U 17062A   22125.89617910 -.00000333  00000+0  00000+0 0  9993
2 42965  40.7769   2.6574 0747329 270.7711  51.3476  1.00264703 16738
SES-11 (ECHOSTAR 105)   
1 42967U 17063A   22125.64649804 -.00000084  00000+0  00000+0 0  9999
2 42967   0.0538  94.8400 0002235 310.7433 305.6855  1.00271697 16646
KOREASAT 5A             
1 42984U 17067A   22126.26412250 -.00000353  00000+0  00000+0 0  9993
2 42984   0.0013 298.4133 0001568  80.2696  53.6541  1.00273764 16566
ALCOMSAT 1              
1 43039U 17078A   22125.66254618 -.00000181  00000+0  00000+0 0  9991
2 43039   0.0143  91.7923 0002046 318.6769  26.7673  1.00271741 16205
SBIRS GEO-3 (USA 282)   
1 43162U 18009A   22125.98223355 -.00000289  00000+0  00000+0 0  9991
2 43162   3.6256 318.9631 0001733  81.3152 316.1505  1.00271951 15761
